WNISAT 1R               
1 42835U 17042L   26068.86192839  .00004802  00000+0  37840-3 0  9992
2 42835  97.4515 228.7079 0013301 131.3338 228.9034 15.01153186471607
STARLINK-5597           
1 55403U 23014N   26068.40878669  .00000136  00000+0  19206-4 0  9998
2 55403  69.9996  65.1544 0003437 268.5809  91.4956 14.98331021172014
