[{"OBJECT_NAME":"WNISAT 1R","OBJECT_ID":"2017-042L","EPOCH":"2026-03-09T20:41:10.613760","MEAN_MOTION":15.01153186,"ECCENTRICITY":0.00133015,"INCLINATION":97.4515,"RA_OF_ASC_NODE":228.7079,"ARG_OF_PERICENTER":131.3338,"MEAN_ANOMALY":228.9034,"EPHEMERIS_TYPE":0,"CLASSIFICATION_TYPE":"U","NORAD_CAT_ID":42835,"ELEMENT_SET_NO":999,"REV_AT_EPOCH":47160,"BSTAR":0.00037839839,"MEAN_MOTION_DOT":4.802e-5,"MEAN_MOTION_DDOT":0},{"OBJECT_NAME":"STARLINK-5597","OBJECT_ID":"2023-014N","EPOCH":"2026-03-09T09:48:39.170016","MEAN_MOTION":14.98331021,"ECCENTRICITY":0.00034374,"INCLINATION":69.9996,"RA_OF_ASC_NODE":65.1544,"ARG_OF_PERICENTER":268.5809,"MEAN_ANOMALY":91.4956,"EPHEMERIS_TYPE":0,"CLASSIFICATION_TYPE":"U","NORAD_CAT_ID":55403,"ELEMENT_SET_NO":999,"REV_AT_EPOCH":17201,"BSTAR":1.9205784e-5,"MEAN_MOTION_DOT":1.36e-6,"MEAN_MOTION_DDOT":0}]
